NORAD_CAT_ID,OBJECT_NAME,OBJECT_TYPE,EPOCH,MEAN_MOTION,ECCENTRICITY,INCLINATION,RA_OF_ASC_NODE,ARG_OF_PERICENTER,MEAN_ANOMALY,BSTAR,MEAN_MOTION_DOT,MEAN_MOTION_DDOT,TLE_LINE0,TLE_LINE1,TLE_LINE2,SEMIMAJOR_AXIS,PERIOD,APOGEE,PERIGEE,DECAYED
56777.0,STARLINK-5582,PAYLOAD,2024-08-12 09:50:07,14.98349868,0.000284,70.0031,352.6245,263.9209,96.1626,0.00030495,3.549e-05,0.0,0 STARLINK-5582,1 56777U 23078L   24225.40981234  .00003549  00000-0  30495-3 0  9993,2 56777  70.0031 352.6245 0002840 263.9209  96.1626 14.98349868 66919,6950.131,96.106,573.97,570.023,0.0
56777.0,STARLINK-5582,PAYLOAD,2024-08-12 14:38:31,14.98361123,0.0003092,70.0025,352.1174,269.8263,90.2542,0.00041542,4.871e-05,0.0,0 STARLINK-5582,1 56777U 23078L   24225.61008166  .00004871  00000-0  41542-3 0  9994,2 56777  70.0025 352.1174 0003092 269.8263  90.2542 14.98361123 66687,6950.097,96.105,574.111,569.813,0.0
56777.0,STARLINK-5582,PAYLOAD,2024-08-12 19:26:54,14.98371971,0.0002326,70.002,351.612,273.6033,86.486,0.00053097,6.255e-05,0.0,0 STARLINK-5582,1 56777U 23078L   24225.81034815  .00006255  00000-0  53097-3 0  9992,2 56777  70.0020 351.6120 0002326 273.6033  86.4860 14.98371971 66978,6950.063,96.104,573.545,570.312,0.0
56777.0,STARLINK-5582,PAYLOAD,2024-08-13 03:27:36,14.98330531,0.0003121,70.0027,350.772,265.1572,94.923,-0.00021607,-2.67e-05,0.0,0 STARLINK-5582,1 56777U 23078L   24226.14417252 -.00002670  00000-0 -21607-3 0  9990,2 56777  70.0027 350.7720 0003121 265.1572  94.9230 14.98330531 67028,6950.191,96.107,574.225,569.887,0.0
56777.0,STARLINK-5582,PAYLOAD,2024-08-13 11:28:20,14.98262382,0.0002851,70.0025,349.9307,267.0868,92.9965,-0.0011277,-0.00013499,0.0,0 STARLINK-5582,1 56777U 23078L   24226.47801630 -.00013499  00000-0 -11277-2 0  9995,2 56777  70.0025 349.9307 0002851 267.0868  92.9965 14.98262382 67071,6950.402,96.111,574.249,570.285,0.0
56777.0,STARLINK-5582,PAYLOAD,2024-08-13 14:40:36,14.98267095,0.0003781,70.0022,349.5934,275.9419,84.1309,-0.0012347,-0.00014771,0.0,0 STARLINK-5582,1 56777U 23078L   24226.61153654 -.00014771  00000-0 -12347-2 0  9990,2 56777  70.0022 349.5934 0003781 275.9419  84.1309 14.98267095 66837,6950.387,96.111,574.88,569.624,0.0
56777.0,STARLINK-5582,PAYLOAD,2024-08-13 19:29:00,14.982675,0.0003614,70.0024,349.0885,275.0161,85.0585,-0.0015792,-0.00018856,0.0,0 STARLINK-5582,1 56777U 23078L   24226.81181298 -.00018856  00000-0 -15792-2 0  9992,2 56777  70.0024 349.0885 0003614 275.0161  85.0585 14.98267500 67129,6950.386,96.111,574.763,569.739,0.0
56777.0,STARLINK-5582,PAYLOAD,2024-08-14 03:29:40,14.98311648,0.0003431,70.0026,348.2468,274.294,85.7827,0.00039314,4.599e-05,0.0,0 STARLINK-5582,1 56777U 23078L   24227.14560209  .00004599  00000-0  39314-3 0  9996,2 56777  70.0026 348.2468 0003431 274.2940  85.7827 14.98311648 67176,6950.25,96.108,574.499,569.73,0.0
56777.0,STARLINK-5582,PAYLOAD,2024-08-14 14:42:37,14.98329876,0.0003422,70.0026,347.0684,276.2353,83.8416,0.0032202,0.00038543,0.0,0 STARLINK-5582,1 56777U 23078L   24227.61293526  .00038543  00000-0  32202-2 0  9997,2 56777  70.0026 347.0684 0003422 276.2353  83.8416 14.98329876 66986,6950.193,96.107,574.437,569.68,0.0
56777.0,STARLINK-5582,PAYLOAD,2024-08-14 19:31:01,14.9835954,0.000349,70.0028,346.5633,278.0832,81.9931,0.001991,0.00023763,0.0,0 STARLINK-5582,1 56777U 23078L   24227.81320913  .00023763  00000-0  19910-2 0  9999,2 56777  70.0028 346.5633 0003490 278.0832  81.9931 14.98359540 67278,6950.102,96.105,574.392,569.541,0.0
56777.0,STARLINK-5582,PAYLOAD,2024-08-14 21:07:09,14.98361053,0.0003507,70.0027,346.395,278.5278,81.5484,0.0016746,0.00019962,0.0,0 STARLINK-5582,1 56777U 23078L   24227.87996762  .00019962  00000-0  16746-2 0  9996,2 56777  70.0027 346.3950 0003507 278.5278  81.5484 14.98361053 67029,6950.097,96.105,574.399,569.524,0.0
56777.0,STARLINK-5582,PAYLOAD,2024-08-15 03:31:41,14.9835969,0.000348,70.0028,345.721,277.5147,82.5616,0.00087925,0.00010422,0.0,0 STARLINK-5582,1 56777U 23078L   24228.14700334  .00010422  00000-0  87925-3 0  9995,2 56777  70.0028 345.7210 0003480 277.5147  82.5616 14.98359690 67321,6950.101,96.105,574.385,569.547,0.0
56777.0,STARLINK-5582,PAYLOAD,2024-08-15 14:44:36,14.98391426,0.0003546,70.0029,344.5435,279.5192,80.5566,0.0024037,0.00028752,0.0,0 STARLINK-5582,1 56777U 23078L   24228.61430837  .00028752  00000-0  24037-2 0  9994,2 56777  70.0029 344.5435 0003546 279.5192  80.5566 14.98391426 67137,6950.003,96.103,574.332,569.403,0.0
56777.0,STARLINK-5582,PAYLOAD,2024-08-15 19:32:59,14.9840781,0.0003593,70.0029,344.0381,281.1877,78.8878,0.0024065,0.00028798,0.0,0 STARLINK-5582,1 56777U 23078L   24228.81457721  .00028798  00000-0  24065-2 0  9998,2 56777  70.0029 344.0381 0003593 281.1877  78.8878 14.98407810 67426,6949.952,96.102,574.314,569.32,0.0
56777.0,STARLINK-5582,PAYLOAD,2024-08-15 21:09:07,14.98415171,0.0003649,70.0029,343.8695,281.5382,78.5367,0.002717,0.0003255,0.0,0 STARLINK-5582,1 56777U 23078L   24228.88133348  .00032550  00000-0  27170-2 0  9992,2 56777  70.0029 343.8695 0003649 281.5382  78.5367 14.98415171 67179,6949.93,96.102,574.331,569.258,0.0
56777.0,STARLINK-5582,PAYLOAD,2024-08-16 03:33:40,14.98350434,0.0003388,70.0029,343.1962,276.4194,83.6579,-0.00069922,-8.431e-05,0.0,0 STARLINK-5582,1 56777U 23078L   24229.14838004 -.00008431  00000-0 -69922-3 0  9998,2 56777  70.0029 343.1962 0003388 276.4194  83.6579 14.98350434 67478,6950.13,96.106,574.349,569.64,0.0
56777.0,STARLINK-5582,PAYLOAD,2024-08-16 13:10:28,14.98349349,0.000334,70.003,342.187,276.5816,83.4963,-0.00015403,-1.931e-05,0.0,0 STARLINK-5582,1 56777U 23078L   24229.54893685 -.00001931  00000-0 -15403-3 0  9991,2 56777  70.0030 342.1870 0003340 276.5816  83.4963 14.98349349 67273,6950.133,96.106,574.319,569.677,0.0
56777.0,STARLINK-5582,PAYLOAD,2024-08-16 21:11:08,14.98351,0.0003295,70.003,341.3452,275.5797,84.4986,0.00073214,8.658e-05,0.0,0 STARLINK-5582,1 56777U 23078L   24229.88273519  .00008658  00000-0  73214-3 0  9991,2 56777  70.0030 341.3452 0003295 275.5797  84.4986 14.98351000 67325,6950.128,96.106,574.283,569.703,0.0
56777.0,STARLINK-5582,PAYLOAD,2024-08-16 22:47:16,14.98353248,0.0003288,70.0031,341.1768,275.5749,84.5035,0.0010595,0.00012579,0.0,0 STARLINK-5582,1 56777U 23078L   24229.94949485  .00012579  00000-0  10595-2 0  9999,2 56777  70.0031 341.1768 0003288 275.5749  84.5035 14.98353248 67594,6950.121,96.106,574.271,569.701,0.0
56777.0,STARLINK-5582,PAYLOAD,2024-08-17 08:24:05,14.98329095,0.0003342,70.0031,340.1668,270.9326,89.145,0.00055855,6.578e-05,0.0,0 STARLINK-5582,1 56777U 23078L   24230.35006124  .00006578  00000-0  55855-3 0  9991,2 56777  70.0031 340.1668 0003342 270.9326  89.1450 14.98329095 67655,6950.196,96.107,574.383,569.738,0.0
56777.0,STARLINK-5582,PAYLOAD,2024-08-17 18:00:53,14.98342069,0.0003256,70.0033,339.1571,271.5238,88.5548,0.0022029,0.00026299,0.0,0 STARLINK-5582,1 56777U 23078L   24230.75062206  .00026299  00000-0  22029-2 0  9996,2 56777  70.0033 339.1571 0003256 271.5238  88.5548 14.98342069 67456,6950.156,96.106,574.284,569.758,0.0
56777.0,STARLINK-5582,PAYLOAD,2024-08-18 11:38:22,14.9835345,0.0003121,70.0033,337.3056,271.9238,88.1564,0.0012633,0.00015022,0.0,0 STARLINK-5582,1 56777U 23078L   24231.48497694  .00015022  00000-0  12633-2 0  9992,2 56777  70.0033 337.3056 0003121 271.9238  88.1564 14.98353450 67820,6950.12,96.105,574.155,569.816,0.0
56777.0,STARLINK-5582,PAYLOAD,2024-08-18 18:02:53,14.98347502,0.0003075,70.0035,336.6325,262.1274,97.9536,-1.2532e-06,-1.08e-06,0.0,0 STARLINK-5582,1 56777U 23078L   24231.75200985 -.00000108  00000-0 -12532-5 0  9999,2 56777  70.0035 336.6325 0003075 262.1274  97.9536 14.98347502 67607,6950.139,96.106,574.141,569.867,0.0
56777.0,STARLINK-5582,PAYLOAD,2024-08-19 13:16:30,14.98376951,0.0003078,70.003,334.6118,273.2901,86.7906,0.0022283,0.00026628,0.0,0 STARLINK-5582,1 56777U 23078L   24232.55312638  .00026628  00000-0  22283-2 0  9991,2 56777  70.0030 334.6118 0003078 273.2901  86.7906 14.98376951 67723,6950.048,96.104,574.052,569.773,0.0
56777.0,STARLINK-5582,PAYLOAD,2024-08-19 16:28:45,14.98384319,0.0003132,70.0031,334.2754,274.283,85.7971,0.0022901,0.00027378,0.0,0 STARLINK-5582,1 56777U 23078L   24232.68664154  .00027378  00000-0  22901-2 0  9998,2 56777  70.0031 334.2754 0003132 274.2830  85.7971 14.98384319 68009,6950.025,96.104,574.067,569.713,0.0
56777.0,STARLINK-5582,PAYLOAD,2024-08-20 11:42:23,14.98324623,0.0002929,70.0021,332.2566,266.7129,93.3695,-0.00023584,-2.905e-05,0.0,0 STARLINK-5582,1 56777U 23078L   24233.48776847 -.00002905  00000-0 -23584-3 0  9990,2 56777  70.0021 332.2566 0002929 266.7129  93.3695 14.98324623 68120,6950.21,96.107,574.11,570.039,0.0
56777.0,STARLINK-5582,PAYLOAD,2024-08-20 14:54:39,14.98321904,0.0003286,70.0018,331.9202,266.99,93.0883,-0.00035038,-4.27e-05,0.0,0 STARLINK-5582,1 56777U 23078L   24233.62129065 -.00004270  00000-0 -35038-3 0  9994,2 56777  70.0018 331.9202 0003286 266.9900  93.0883 14.98321904 67882,6950.218,96.108,574.367,569.799,0.0
56777.0,STARLINK-5582,PAYLOAD,2024-08-21 11:44:24,14.98328693,0.0002798,70.002,329.7344,261.3202,98.764,-0.00033273,-4.061e-05,0.0,0 STARLINK-5582,1 56777U 23078L   24234.48917715 -.00004061  00000-0 -33273-3 0  9993,2 56777  70.0020 329.7344 0002798 261.3202  98.7640 14.98328693 68277,6950.197,96.107,574.007,570.117,0.0
56777.0,STARLINK-5582,PAYLOAD,2024-08-21 14:56:40,14.98330667,0.0002882,70.0019,329.3974,262.7468,97.3364,-0.00026114,-3.207e-05,0.0,0 STARLINK-5582,1 56777U 23078L   24234.62269636 -.00003207  00000-0 -26114-3 0  9998,2 56777  70.0019 329.3974 0002882 262.7468  97.3364 14.98330667 68039,6950.191,96.107,574.059,570.053,0.0
56777.0,STARLINK-5582,PAYLOAD,2024-08-21 16:32:48,14.98332113,0.0003068,70.0018,329.2292,266.2574,93.8234,-0.00026734,-3.282e-05,0.0,0 STARLINK-5582,1 56777U 23078L   24234.68945554 -.00003282  00000-0 -26734-3 0  9995,2 56777  70.0018 329.2292 0003068 266.2574  93.8234 14.98332113 68040,6950.186,96.107,574.184,569.919,0.0
